{"type": "FeatureCollection", "features": [ {"type": "Feature", "properties": {"norad_id": 66767, "name": "TRANSPORTER-15DF", "group": "last-30-days", "lat": 60.40416024204547, "lon": 59.221274248494325, "alt_km": 503.65242824007237, "timestamp": "2025-12-26T23:26:40.921278+00:00", "meta": {"OBJECT_NAME": "TRANSPORTER-15DF", "OBJECT_ID": "2025-276DF", "EPOCH": "2025-12-26T18:25:51.242016", "MEAN_MOTION": 15.18364475, "ECCENTRICITY": 0.0002055, "INCLINATION": 97.4364, "RA_OF_ASC_NODE": 72.3107, "ARG_OF_PERICENTER": 86.0552, "MEAN_ANOMALY": 274.0917, "EPHEMERIS_TYPE": 0, "CLASSIFICATION_TYPE": "U", "NORAD_CAT_ID": 66767, "ELEMENT_SET_NO": 999, "REV_AT_EPOCH": 425, "BSTAR": 0.00023021, "MEAN_MOTION_DOT": 4.663e-05, "MEAN_MOTION_DDOT": 0}, "tle": {"line1": "1 66767U 25276DF  25360.76795419  .00004663  00000+0  23021-3 0  9997", "line2": "2 66767  97.4364  72.3107 0002055  86.0552 274.0917 15.18364475  4250"}}, "geometry": {"type": "Point", "coordinates": [59.221274248494325, 60.40416024204547]}}, {"type": "Feature", "properties": {"norad_id": 66768, "name": "TRANSPORTER-15DG", "group": "last-30-days", "lat": 74.07350163570602, "lon": 45.283538406555074, "alt_km": 501.62939897071374, "timestamp": "2025-12-26T23:26:40.921289+00:00", "meta": {"OBJECT_NAME": "TRANSPORTER-15DG", "OBJECT_ID": "2025-276DG", "EPOCH": "2025-12-26T18:22:03.463104", "MEAN_MOTION": 15.18583124, "ECCENTRICITY": 0.000207, "INCLINATION": 97.4349, "RA_OF_ASC_NODE": 72.3097, "ARG_OF_PERICENTER": 72.2862, "MEAN_ANOMALY": 287.8598, "EPHEMERIS_TYPE": 0, "CLASSIFICATION_TYPE": "U", "NORAD_CAT_ID": 66768, "ELEMENT_SET_NO": 999, "REV_AT_EPOCH": 425, "BSTAR": 0.00045501, "MEAN_MOTION_DOT": 9.346e-05, "MEAN_MOTION_DDOT": 0}, "tle": {"line1": "1 66768U 25276DG  25360.76531786  .00009346  00000+0  45501-3 0  9993", "line2": "2 66768  97.4349  72.3097 0002070  72.2862 287.8598 15.18583124  4251"}}, "geometry": {"type": "Point", "coordinates": [45.283538406555074, 74.07350163570602]}}, {"type": "Feature", "properties": {"norad_id": 66769, "name": "TRANSPORTER-15DH", "group": "last-30-days", "lat": 67.93427533636965, "lon": 53.72668872832196, "alt_km": 502.3157943595088, "timestamp": "2025-12-26T23:26:40.921300+00:00", "meta": {"OBJECT_NAME": "TRANSPORTER-15DH", "OBJECT_ID": "2025-276DH", "EPOCH": "2025-12-26T18:23:47.624352", "MEAN_MOTION": 15.18451424, "ECCENTRICITY": 0.0002724, "INCLINATION": 97.441, "RA_OF_ASC_NODE": 72.329, "ARG_OF_PERICENTER": 100.9563, "MEAN_ANOMALY": 259.1977, "EPHEMERIS_TYPE": 0, "CLASSIFICATION_TYPE": "U", "NORAD_CAT_ID": 66769, "ELEMENT_SET_NO": 999, "REV_AT_EPOCH": 425, "BSTAR": 0.00031207, "MEAN_MOTION_DOT": 6.362e-05, "MEAN_MOTION_DDOT": 0}, "tle": {"line1": "1 66769U 25276DH  25360.76652343  .00006362  00000+0  31207-3 0  9990", "line2": "2 66769  97.4410  72.3290 0002724 100.9563 259.1977 15.18451424  4259"}}, "geometry": {"type": "Point", "coordinates": [53.72668872832196, 67.93427533636965]}}, {"type": "Feature", "properties": {"norad_id": 66770, "name": "TRANSPORTER-15DJ", "group": "last-30-days", "lat": 69.26577684861341, "lon": 52.34204152664278, "alt_km": 502.2649194154392, "timestamp": "2025-12-26T23:26:40.921311+00:00", "meta": {"OBJECT_NAME": "TRANSPORTER-15DJ", "OBJECT_ID": "2025-276DJ", "EPOCH": "2025-12-26T15:13:37.185024", "MEAN_MOTION": 15.184193, "ECCENTRICITY": 0.0003252, "INCLINATION": 97.4439, "RA_OF_ASC_NODE": 72.2106, "ARG_OF_PERICENTER": 115.3243, "MEAN_ANOMALY": 244.8328, "EPHEMERIS_TYPE": 0, "CLASSIFICATION_TYPE": "U", "NORAD_CAT_ID": 66770, "ELEMENT_SET_NO": 999, "REV_AT_EPOCH": 423, "BSTAR": 0.00059826, "MEAN_MOTION_DOT": 0.00012256, "MEAN_MOTION_DDOT": 0}, "tle": {"line1": "1 66770U 25276DJ  25360.63445816  .00012256  00000+0  59826-3 0  9999", "line2": "2 66770  97.4439  72.2106 0003252 115.3243 244.8328 15.18419300  4235"}}, "geometry": {"type": "Point", "coordinates": [52.34204152664278, 69.26577684861341]}}, {"type": "Feature", "properties": {"norad_id": 66771, "name": "TRANSPORTER-15DK", "group": "last-30-days", "lat": 72.62462444763241, "lon": 47.84978109310709, "alt_km": 501.6022874187456, "timestamp": "2025-12-26T23:26:40.921324+00:00", "meta": {"OBJECT_NAME": "TRANSPORTER-15DK", "OBJECT_ID": "2025-276DK", "EPOCH": "2025-12-26T15:12:41.261760", "MEAN_MOTION": 15.18513229, "ECCENTRICITY": 0.000303, "INCLINATION": 97.4435, "RA_OF_ASC_NODE": 72.2093, "ARG_OF_PERICENTER": 108.2696, "MEAN_ANOMALY": 251.8868, "EPHEMERIS_TYPE": 0, "CLASSIFICATION_TYPE": "U", "NORAD_CAT_ID": 66771, "ELEMENT_SET_NO": 999, "REV_AT_EPOCH": 423, "BSTAR": 0.00036363, "MEAN_MOTION_DOT": 7.438e-05, "MEAN_MOTION_DDOT": 0}, "tle": {"line1": "1 66771U 25276DK  25360.63381090  .00007438  00000+0  36363-3 0  9990", "line2": "2 66771  97.4435  72.2093 0003030 108.2696 251.8868 15.18513229  4236"}}, "geometry": {"type": "Point", "coordinates": [47.84978109310709, 72.62462444763241]}}, {"type": "Feature", "properties": {"norad_id": 66772, "name": "TRANSPORTER-15DL", "group": "last-30-days", "lat": 82.54585356092261, "lon": -19.82250726758395, "alt_km": 500.1296181460948, "timestamp": "2025-12-26T23:26:40.921335+00:00", "meta": {"OBJECT_NAME": "TRANSPORTER-15DL", "OBJECT_ID": "2025-276DL", "EPOCH": "2025-12-26T16:43:25.364640", "MEAN_MOTION": 15.18749428, "ECCENTRICITY": 0.0002903, "INCLINATION": 97.4427, "RA_OF_ASC_NODE": 72.2743, "ARG_OF_PERICENTER": 93.425, "MEAN_ANOMALY": 266.7316, "EPHEMERIS_TYPE": 0, "CLASSIFICATION_TYPE": "U", "NORAD_CAT_ID": 66772, "ELEMENT_SET_NO": 999, "REV_AT_EPOCH": 424, "BSTAR": 0.00061051, "MEAN_MOTION_DOT": 0.00012629, "MEAN_MOTION_DDOT": 0}, "tle": {"line1": "1 66772U 25276DL  25360.69682135  .00012629  00000+0  61051-3 0  9991", "line2": "2 66772  97.4427  72.2743 0002903  93.4250 266.7316 15.18749428  4245"}}, "geometry": {"type": "Point", "coordinates": [-19.82250726758395, 82.54585356092261]}}, {"type": "Feature", "properties": {"norad_id": 66773, "name": "TRANSPORTER-15DM", "group": "last-30-days", "lat": 78.6032784324109, "lon": 32.11839133205223, "alt_km": 500.76260942633144, "timestamp": "2025-12-26T23:26:40.921346+00:00", "meta": {"OBJECT_NAME": "TRANSPORTER-15DM", "OBJECT_ID": "2025-276DM", "EPOCH": "2025-12-26T18:20:37.062240", "MEAN_MOTION": 15.18574615, "ECCENTRICITY": 0.0003063, "INCLINATION": 97.4422, "RA_OF_ASC_NODE": 72.3361, "ARG_OF_PERICENTER": 95.0551, "MEAN_ANOMALY": 265.1033, "EPHEMERIS_TYPE": 0, "CLASSIFICATION_TYPE": "U", "NORAD_CAT_ID": 66773, "ELEMENT_SET_NO": 999, "REV_AT_EPOCH": 425, "BSTAR": 0.00053947, "MEAN_MOTION_DOT": 0.00011093, "MEAN_MOTION_DDOT": 0}, "tle": {"line1": "1 66773U 25276DM  25360.76431785  .00011093  00000+0  53947-3 0  9992", "line2": "2 66773  97.4422  72.3361 0003063  95.0551 265.1033 15.18574615  4252"}}, "geometry": {"type": "Point", "coordinates": [32.11839133205223, 78.6032784324109]}}, {"type": "Feature", "properties": {"norad_id": 66774, "name": "TRANSPORTER-15DN", "group": "last-30-days", "lat": 81.0242653903364, "lon": 16.70426258509563, "alt_km": 500.4615334844648, "timestamp": "2025-12-26T23:26:40.921357+00:00", "meta": {"OBJECT_NAME": "TRANSPORTER-15DN", "OBJECT_ID": "2025-276DN", "EPOCH": "2025-12-26T16:44:47.768640", "MEAN_MOTION": 15.1864033, "ECCENTRICITY": 0.0003006, "INCLINATION": 97.441, "RA_OF_ASC_NODE": 72.2673, "ARG_OF_PERICENTER": 93.7072, "MEAN_ANOMALY": 266.4506, "EPHEMERIS_TYPE": 0, "CLASSIFICATION_TYPE": "U", "NORAD_CAT_ID": 66774, "ELEMENT_SET_NO": 999, "REV_AT_EPOCH": 424, "BSTAR": 0.00052384, "MEAN_MOTION_DOT": 0.0001079, "MEAN_MOTION_DDOT": 0}, "tle": {"line1": "1 66774U 25276DN  25360.69777510  .00010790  00000+0  52384-3 0  9991", "line2": "2 66774  97.4410  72.2673 0003006  93.7072 266.4506 15.18640330  4241"}}, "geometry": {"type": "Point", "coordinates": [16.70426258509563, 81.0242653903364]}}, {"type": "Feature", "properties": {"norad_id": 66775, "name": "PHI 1", "group": "last-30-days", "lat": 82.5599828165448, "lon": -18.711443026876147, "alt_km": 500.73847641262273, "timestamp": "2025-12-26T23:26:40.921368+00:00", "meta": {"OBJECT_NAME": "PHI 1", "OBJECT_ID": "2025-276DP", "EPOCH": "2025-12-26T16:43:27.084000", "MEAN_MOTION": 15.18703266, "ECCENTRICITY": 0.0002546, "INCLINATION": 97.4332, "RA_OF_ASC_NODE": 72.2433, "ARG_OF_PERICENTER": 62.1005, "MEAN_ANOMALY": 298.0487, "EPHEMERIS_TYPE": 0, "CLASSIFICATION_TYPE": "U", "NORAD_CAT_ID": 66775, "ELEMENT_SET_NO": 999, "REV_AT_EPOCH": 424, "BSTAR": 0.00048456, "MEAN_MOTION_DOT": 9.993e-05, "MEAN_MOTION_DDOT": 0}, "tle": {"line1": "1 66775U 25276DP  25360.69684125  .00009993  00000+0  48456-3 0  9999", "line2": "2 66775  97.4332  72.2433 0002546  62.1005 298.0487 15.18703266  4240"}}, "geometry": {"type": "Point", "coordinates": [-18.711443026876147, 82.5599828165448]}}, {"type": "Feature", "properties": {"norad_id": 66776, "name": "TRANSPORTER-15DQ", "group": "last-30-days", "lat": 82.03214935943538, "lon": -38.51661367635251, "alt_km": 500.30289715126764, "timestamp": "2025-12-26T23:26:40.921379+00:00", "meta": {"OBJECT_NAME": "TRANSPORTER-15DQ", "OBJECT_ID": "2025-276DQ", "EPOCH": "2025-12-26T16:42:45.431424", "MEAN_MOTION": 15.18757505, "ECCENTRICITY": 0.0002757, "INCLINATION": 97.4372, "RA_OF_ASC_NODE": 72.257, "ARG_OF_PERICENTER": 77.1141, "MEAN_ANOMALY": 283.0402, "EPHEMERIS_TYPE": 0, "CLASSIFICATION_TYPE": "U", "NORAD_CAT_ID": 66776, "ELEMENT_SET_NO": 999, "REV_AT_EPOCH": 424, "BSTAR": 0.00056701, "MEAN_MOTION_DOT": 0.00011725, "MEAN_MOTION_DDOT": 0}, "tle": {"line1": "1 66776U 25276DQ  25360.69635916  .00011725  00000+0  56701-3 0  9992", "line2": "2 66776  97.4372  72.2570 0002757  77.1141 283.0402 15.18757505  4244"}}, "geometry": {"type": "Point", "coordinates": [-38.51661367635251, 82.03214935943538]}}]}